{
  "last_updated": "2026-02-26T06:00:03.214623",
  "satellites": {
    "98592": {
      "name": "DUTHSat-2",
      "norad_id": "98592",
      "tle": "1 64530U 25135C   26056.55391804  .00014168  00000-0  59020-3 0  9997\n2 64530  97.4480 172.8460 0004805 210.3783 149.7176 15.23824169 37917",
      "epoch": "2026-02-25T13:17:38.518656",
      "fetched_at": "2026-02-26T06:00:03.333985",
      "source": "satnogs"
    },
    "98530": {
      "name": "LAMARR",
      "norad_id": "98530",
      "tle": "1 66673U 25276H   26026.90917087  .00034524  00000-0  16680-2 0  9998\n2 66673  97.4301 102.8338 0007597 141.5941 218.5835 15.18529012  8972",
      "epoch": "2026-01-26T21:49:12.363168",
      "fetched_at": "2026-01-28T06:00:02.884758",
      "source": "satnogs",
      "note": "Using previous TLE (fetch/manual failed today)"
    },
    "98529": {
      "name": "DIRAC",
      "norad_id": "98529",
      "tle": "1 66681U 25276R   26026.63281774  .00024563  00000-0  11745-2 0  9993\n2 66681  97.4280 102.5712 0006320 148.4115 211.7500 15.18972786  8932",
      "epoch": "2026-01-26T15:11:15.452736",
      "fetched_at": "2026-01-28T06:00:02.937152",
      "source": "satnogs",
      "note": "Using previous TLE (fetch/manual failed today)"
    },
    "98518": {
      "name": "MICE-1",
      "norad_id": "98518",
      "tle": "1 66684U 25276U   26056.63595814  .00003785  00000-0  18801-3 0  9996\n2 66684  97.4365 132.1500 0006195  38.0147 322.1524 15.18257111 13489",
      "epoch": "2026-02-25T15:15:46.783296",
      "fetched_at": "2026-02-26T06:00:03.478234",
      "source": "satnogs"
    }
  },
  "fetch_log": [
    {
      "norad_id": "98592",
      "name": "DUTHSat-2",
      "status": "success",
      "source": "satnogs",
      "timestamp": "2026-02-26T06:00:03.333989"
    },
    {
      "norad_id": "98530",
      "name": "LAMARR",
      "status": "fallback",
      "timestamp": "2026-02-26T06:00:03.382860"
    },
    {
      "norad_id": "98529",
      "name": "DIRAC",
      "status": "fallback",
      "timestamp": "2026-02-26T06:00:03.428938"
    },
    {
      "norad_id": "98518",
      "name": "MICE-1",
      "status": "success",
      "source": "satnogs",
      "timestamp": "2026-02-26T06:00:03.478242"
    }
  ]
}